XRISM                   
1 57800U 23137A   23303.54455532  .00006021  00000+0  48607-3 0  9996
2 57800  31.0050  37.4194 0010285  86.0744 274.1066 14.98401844  8034
